COSMOS 2251 DEB         
1 37314U 93036BKE 17345.31560806  .00001362  00000-0  14408-3 0  9990
2 37314  73.9321 217.8900 0077397 141.0691 219.6099 14.88156954426107
